ONEWEB-0035             
1 45143U 20008N   26042.01731851 -.00000031  00000+0 -12644-3 0  9992
2 45143  87.8752  61.4201 0001864  96.6237 263.5103 13.10376138291412
ONEWEB-0036             
1 45144U 20008P   26042.00734623 -.00000502  00000+0 -14738-2 0  9990
2 45144  87.8761  61.3860 0001906  82.1261 278.0082 13.10374405291846
ONEWEB-0038             
1 45145U 20008Q   26041.51624037  .00000048  00000+0  98906-4 0  9997
2 45145  87.8828  46.2650 0000359 151.4003 208.7145 13.11418638293722
ONEWEB-0039             
1 45146U 20008R   26041.60813396 -.00000337  00000+0 -10003-2 0  9999
2 45146  87.8759  61.4834 0001666  76.6860 283.4453 13.10371308291585
ONEWEB-0040             
1 45147U 20008S   26042.05964419 -.00000098  00000+0 -31656-3 0  9995
2 45147  87.8745  61.4123 0001746  93.9294 266.2033 13.10370106291346
ONEWEB-0043             
1 45149U 20008U   26041.98494417 -.00000240  00000+0 -72482-3 0  9995
2 45149  87.8748  61.4088 0001753  72.5481 287.5838 13.10370438291651
ONEWEB-0044             
1 45150U 20008V   26042.01315329 -.00000563  00000+0 -16506-2 0  9998
2 45150  87.8762  61.3978 0001703  87.9190 272.2133 13.10376266291955
ONEWEB-0045             
1 45151U 20008W   26041.51101340 -.00000204  00000+0 -61196-3 0  9997
2 45151  87.8831  46.2521 0001746  84.3311 275.8016 13.11420195293809
ONEWEB-0047             
1 45152U 20008X   26042.00652230 -.00000493  00000+0 -14480-2 0  9995
2 45152  87.8753  61.4039 0001807  93.3954 266.7380 13.10374887291678
ONEWEB-0048             
1 45153U 20008Y   26042.00153245 -.00000578  00000+0 -16926-2 0  9999
2 45153  87.8748  61.4329 0001810  94.4605 265.6729 13.10372443291282
ONEWEB-0049             
1 45154U 20008Z   26042.00472398 -.00000532  00000+0 -15606-2 0  9997
2 45154  87.8749  61.4206 0002191  85.0316 275.1061 13.10374934291503
ONEWEB-0051             
1 45155U 20008AA  26041.50931616 -.00000286  00000+0 -84408-3 0  9998
2 45155  87.8827  46.2668 0001840  87.7052 272.4287 13.11418382294487
ONEWEB-0052             
1 45156U 20008AB  26041.61726497 -.00000701  00000+0 -20432-2 0  9998
2 45156  87.8760  61.4646 0002232  83.0407 277.0974 13.10372735291366
ONEWEB-0053             
1 45157U 20008AC  26042.05798199  .00000036  00000+0  65649-4 0  9996
2 45157  87.8747  61.4179 0001898  78.1520 281.9820 13.10369643291392
ONEWEB-0054             
1 45158U 20008AD  26042.01647998 -.00000085  00000+0 -28107-3 0  9996
2 45158  87.8760  61.3996 0001948  91.3872 268.7479 13.10375786291508
ONEWEB-0056             
1 45159U 20008AE  26041.61560240 -.00000632  00000+0 -18458-2 0  9991
2 45159  87.8757  61.4798 0002072  91.8549 268.2816 13.10372785291608
