[{"OBJECT_NAME":"ONEWEB-0035","OBJECT_ID":"2020-008N","EPOCH":"2026-02-11T00:24:56.319264","MEAN_MOTION":13.10376138,"ECCENTRICITY":0.00018642,"INCLINATION":87.8752,"RA_OF_ASC_NODE":61.4201,"ARG_OF_PERICENTER":96.6237,"MEAN_ANOMALY":263.5103,"EPHEMERIS_TYPE":0,"CLASSIFICATION_TYPE":"U","NORAD_CAT_ID":45143,"ELEMENT_SET_NO":999,"REV_AT_EPOCH":29141,"BSTAR":-0.00012643935,"MEAN_MOTION_DOT":-3.1e-7,"MEAN_MOTION_DDOT":0},{"OBJECT_NAME":"ONEWEB-0036","OBJECT_ID":"2020-008P","EPOCH":"2026-02-11T00:10:34.714272","MEAN_MOTION":13.10374405,"ECCENTRICITY":0.00019068,"INCLINATION":87.8761,"RA_OF_ASC_NODE":61.386,"ARG_OF_PERICENTER":82.1261,"MEAN_ANOMALY":278.0082,"EPHEMERIS_TYPE":0,"CLASSIFICATION_TYPE":"U","NORAD_CAT_ID":45144,"ELEMENT_SET_NO":999,"REV_AT_EPOCH":29184,"BSTAR":-0.0014738273,"MEAN_MOTION_DOT":-5.02e-6,"MEAN_MOTION_DDOT":0},{"OBJECT_NAME":"ONEWEB-0038","OBJECT_ID":"2020-008Q","EPOCH":"2026-02-10T12:23:23.167968","MEAN_MOTION":13.11418638,"ECCENTRICITY":3.593e-5,"INCLINATION":87.8828,"RA_OF_ASC_NODE":46.265,"ARG_OF_PERICENTER":151.4003,"MEAN_ANOMALY":208.7145,"EPHEMERIS_TYPE":0,"CLASSIFICATION_TYPE":"U","NORAD_CAT_ID":45145,"ELEMENT_SET_NO":999,"REV_AT_EPOCH":29372,"BSTAR":9.8905578e-5,"MEAN_MOTION_DOT":4.8e-7,"MEAN_MOTION_DDOT":0},{"OBJECT_NAME":"ONEWEB-0039","OBJECT_ID":"2020-008R","EPOCH":"2026-02-10T14:35:42.774144","MEAN_MOTION":13.10371308,"ECCENTRICITY":0.00016669,"INCLINATION":87.8759,"RA_OF_ASC_NODE":61.4834,"ARG_OF_PERICENTER":76.686,"MEAN_ANOMALY":283.4453,"EPHEMERIS_TYPE":0,"CLASSIFICATION_TYPE":"U","NORAD_CAT_ID":45146,"ELEMENT_SET_NO":999,"REV_AT_EPOCH":29158,"BSTAR":-0.0010003372,"MEAN_MOTION_DOT":-3.37e-6,"MEAN_MOTION_DDOT":0},{"OBJECT_NAME":"ONEWEB-0040","OBJECT_ID":"2020-008S","EPOCH":"2026-02-11T01:25:53.258016","MEAN_MOTION":13.10370106,"ECCENTRICITY":0.00017469,"INCLINATION":87.8745,"RA_OF_ASC_NODE":61.4123,"ARG_OF_PERICENTER":93.9294,"MEAN_ANOMALY":266.2033,"EPHEMERIS_TYPE":0,"CLASSIFICATION_TYPE":"U","NORAD_CAT_ID":45147,"ELEMENT_SET_NO":999,"REV_AT_EPOCH":29134,"BSTAR":-0.00031655601,"MEAN_MOTION_DOT":-9.8e-7,"MEAN_MOTION_DDOT":0},{"OBJECT_NAME":"ONEWEB-0043","OBJECT_ID":"2020-008U","EPOCH":"2026-02-10T23:38:19.176288","MEAN_MOTION":13.10370438,"ECCENTRICITY":0.0001753,"INCLINATION":87.8748,"RA_OF_ASC_NODE":61.4088,"ARG_OF_PERICENTER":72.5481,"MEAN_ANOMALY":287.5838,"EPHEMERIS_TYPE":0,"CLASSIFICATION_TYPE":"U","NORAD_CAT_ID":45149,"ELEMENT_SET_NO":999,"REV_AT_EPOCH":29165,"BSTAR":-0.00072481917,"MEAN_MOTION_DOT":-2.4e-6,"MEAN_MOTION_DDOT":0},{"OBJECT_NAME":"ONEWEB-0044","OBJECT_ID":"2020-008V","EPOCH":"2026-02-11T00:18:56.444256","MEAN_MOTION":13.10376266,"ECCENTRICITY":0.00017031,"INCLINATION":87.8762,"RA_OF_ASC_NODE":61.3978,"ARG_OF_PERICENTER":87.919,"MEAN_ANOMALY":272.2133,"EPHEMERIS_TYPE":0,"CLASSIFICATION_TYPE":"U","NORAD_CAT_ID":45150,"ELEMENT_SET_NO":999,"REV_AT_EPOCH":29195,"BSTAR":-0.0016505568,"MEAN_MOTION_DOT":-5.63e-6,"MEAN_MOTION_DDOT":0},{"OBJECT_NAME":"ONEWEB-0045","OBJECT_ID":"2020-008W","EPOCH":"2026-02-10T12:15:51.557760","MEAN_MOTION":13.11420195,"ECCENTRICITY":0.00017469,"INCLINATION":87.8831,"RA_OF_ASC_NODE":46.2521,"ARG_OF_PERICENTER":84.3311,"MEAN_ANOMALY":275.8016,"EPHEMERIS_TYPE":0,"CLASSIFICATION_TYPE":"U","NORAD_CAT_ID":45151,"ELEMENT_SET_NO":999,"REV_AT_EPOCH":29380,"BSTAR":-0.00061196497,"MEAN_MOTION_DOT":-2.04e-6,"MEAN_MOTION_DDOT":0},{"OBJECT_NAME":"ONEWEB-0047","OBJECT_ID":"2020-008X","EPOCH":"2026-02-11T00:09:23.526720","MEAN_MOTION":13.10374887,"ECCENTRICITY":0.0001807,"INCLINATION":87.8753,"RA_OF_ASC_NODE":61.4039,"ARG_OF_PERICENTER":93.3954,"MEAN_ANOMALY":266.738,"EPHEMERIS_TYPE":0,"CLASSIFICATION_TYPE":"U","NORAD_CAT_ID":45152,"ELEMENT_SET_NO":999,"REV_AT_EPOCH":29167,"BSTAR":-0.0014480398,"MEAN_MOTION_DOT":-4.93e-6,"MEAN_MOTION_DDOT":0},{"OBJECT_NAME":"ONEWEB-0048","OBJECT_ID":"2020-008Y","EPOCH":"2026-02-11T00:02:12.403680","MEAN_MOTION":13.10372443,"ECCENTRICITY":0.00018102,"INCLINATION":87.8748,"RA_OF_ASC_NODE":61.4329,"ARG_OF_PERICENTER":94.4605,"MEAN_ANOMALY":265.6729,"EPHEMERIS_TYPE":0,"CLASSIFICATION_TYPE":"U","NORAD_CAT_ID":45153,"ELEMENT_SET_NO":999,"REV_AT_EPOCH":29128,"BSTAR":-0.0016926485,"MEAN_MOTION_DOT":-5.78e-6,"MEAN_MOTION_DDOT":0},{"OBJECT_NAME":"ONEWEB-0049","OBJECT_ID":"2020-008Z","EPOCH":"2026-02-11T00:06:48.151872","MEAN_MOTION":13.10374934,"ECCENTRICITY":0.00021919,"INCLINATION":87.8749,"RA_OF_ASC_NODE":61.4206,"ARG_OF_PERICENTER":85.0316,"MEAN_ANOMALY":275.1061,"EPHEMERIS_TYPE":0,"CLASSIFICATION_TYPE":"U","NORAD_CAT_ID":45154,"ELEMENT_SET_NO":999,"REV_AT_EPOCH":29150,"BSTAR":-0.0015606335,"MEAN_MOTION_DOT":-5.32e-6,"MEAN_MOTION_DDOT":0},{"OBJECT_NAME":"ONEWEB-0051","OBJECT_ID":"2020-008AA","EPOCH":"2026-02-10T12:13:24.916224","MEAN_MOTION":13.11418382,"ECCENTRICITY":0.000184,"INCLINATION":87.8827,"RA_OF_ASC_NODE":46.2668,"ARG_OF_PERICENTER":87.7052,"MEAN_ANOMALY":272.4287,"EPHEMERIS_TYPE":0,"CLASSIFICATION_TYPE":"U","NORAD_CAT_ID":45155,"ELEMENT_SET_NO":999,"REV_AT_EPOCH":29448,"BSTAR":-0.0008440766,"MEAN_MOTION_DOT":-2.86e-6,"MEAN_MOTION_DDOT":0},{"OBJECT_NAME":"ONEWEB-0052","OBJECT_ID":"2020-008AB","EPOCH":"2026-02-10T14:48:51.693408","MEAN_MOTION":13.10372735,"ECCENTRICITY":0.00022321,"INCLINATION":87.876,"RA_OF_ASC_NODE":61.4646,"ARG_OF_PERICENTER":83.0407,"MEAN_ANOMALY":277.0974,"EPHEMERIS_TYPE":0,"CLASSIFICATION_TYPE":"U","NORAD_CAT_ID":45156,"ELEMENT_SET_NO":999,"REV_AT_EPOCH":29136,"BSTAR":-0.002043249,"MEAN_MOTION_DOT":-7.01e-6,"MEAN_MOTION_DDOT":0},{"OBJECT_NAME":"ONEWEB-0053","OBJECT_ID":"2020-008AC","EPOCH":"2026-02-11T01:23:29.643936","MEAN_MOTION":13.10369643,"ECCENTRICITY":0.00018984,"INCLINATION":87.8747,"RA_OF_ASC_NODE":61.4179,"ARG_OF_PERICENTER":78.152,"MEAN_ANOMALY":281.982,"EPHEMERIS_TYPE":0,"CLASSIFICATION_TYPE":"U","NORAD_CAT_ID":45157,"ELEMENT_SET_NO":999,"REV_AT_EPOCH":29139,"BSTAR":6.5648962e-5,"MEAN_MOTION_DOT":3.6e-7,"MEAN_MOTION_DDOT":0},{"OBJECT_NAME":"ONEWEB-0054","OBJECT_ID":"2020-008AD","EPOCH":"2026-02-11T00:23:43.870272","MEAN_MOTION":13.10375786,"ECCENTRICITY":0.00019481,"INCLINATION":87.876,"RA_OF_ASC_NODE":61.3996,"ARG_OF_PERICENTER":91.3872,"MEAN_ANOMALY":268.7479,"EPHEMERIS_TYPE":0,"CLASSIFICATION_TYPE":"U","NORAD_CAT_ID":45158,"ELEMENT_SET_NO":999,"REV_AT_EPOCH":29150,"BSTAR":-0.00028106712,"MEAN_MOTION_DOT":-8.5e-7,"MEAN_MOTION_DDOT":0},{"OBJECT_NAME":"ONEWEB-0056","OBJECT_ID":"2020-008AE","EPOCH":"2026-02-10T14:46:28.047360","MEAN_MOTION":13.10372785,"ECCENTRICITY":0.00020729,"INCLINATION":87.8757,"RA_OF_ASC_NODE":61.4798,"ARG_OF_PERICENTER":91.8549,"MEAN_ANOMALY":268.2816,"EPHEMERIS_TYPE":0,"CLASSIFICATION_TYPE":"U","NORAD_CAT_ID":45159,"ELEMENT_SET_NO":999,"REV_AT_EPOCH":29160,"BSTAR":-0.0018458228,"MEAN_MOTION_DOT":-6.32e-6,"MEAN_MOTION_DDOT":0}]
